[{"OBJECT_NAME":"STARLINK-1513","OBJECT_ID":"2020-038BJ","EPOCH":"2026-03-09T15:00:15.367104","MEAN_MOTION":15.30234927,"ECCENTRICITY":9.51e-5,"INCLINATION":53.1601,"RA_OF_ASC_NODE":191.4505,"ARG_OF_PERICENTER":101.2977,"MEAN_ANOMALY":258.8131,"EPHEMERIS_TYPE":0,"CLASSIFICATION_TYPE":"U","NORAD_CAT_ID":45786,"ELEMENT_SET_NO":999,"REV_AT_EPOCH":31683,"BSTAR":0.0004075,"MEAN_MOTION_DOT":0.00011742,"MEAN_MOTION_DDOT":0},{"OBJECT_NAME":"UHETSAT","OBJECT_ID":"2023-185E","EPOCH":"2026-03-09T22:39:26.455680","MEAN_MOTION":15.29797662,"ECCENTRICITY":0.00118435,"INCLINATION":97.3584,"RA_OF_ASC_NODE":137.3576,"ARG_OF_PERICENTER":307.7346,"MEAN_ANOMALY":52.2821,"EPHEMERIS_TYPE":0,"CLASSIFICATION_TYPE":"U","NORAD_CAT_ID":58466,"ELEMENT_SET_NO":999,"REV_AT_EPOCH":12611,"BSTAR":0.00030513019,"MEAN_MOTION_DOT":8.749e-5,"MEAN_MOTION_DDOT":0}]
